STARLINK-37014          
1 68216U 26053K   26087.83335647 -.00131800  00000+0 -69579-3 0  9994
2 68216  97.2837 323.0328 0001395 101.1567 199.8247 15.80877375  3094
STARLINK-37011          
1 68217U 26053L   26087.83335647 -.00060918  00000+0 -31912-3 0  9996
2 68217  97.2838 323.0353 0001520  99.8680 205.3960 15.80842166  3098
STARLINK-37108          
1 68218U 26053M   26087.83335647 -.00007714  00000+0 -39564-4 0  9994
2 68218  97.2839 323.0368 0001473  97.7519 211.7822 15.80818136  3099
STARLINK-37106          
1 68219U 26053N   26087.83335647  .00095711  00000+0  49525-3 0  9994
2 68219  97.2831 323.0389 0001245  97.1382 216.6714 15.80803076  3095
STARLINK-37030          
1 68220U 26053P   26087.83335647  .00082581  00000+0  42800-3 0  9996
2 68220  97.2828 323.0421 0001464  91.3962 230.9589 15.80805390  3093
STARLINK-37012          
1 68221U 26053Q   26087.83335647 -.00125393  00000+0 -66164-3 0  9997
2 68221  97.2829 323.0397 0001412  92.9641 225.1166 15.80871072  3098
STARLINK-37110          
1 68222U 26053R   26087.83335647 -.00007482  00000+0 -38307-4 0  9995
2 68222  97.2829 323.0436 0001360  98.5543 228.0531 15.80841378  3092
STARLINK-37025          
1 68223U 26053S   26087.83335647  .00040020  00000+0  20875-3 0  9999
2 68223  97.2831 323.0448 0001251  94.4267 236.4798 15.80812009  3093
STARLINK-36977          
1 68224U 26053T   26087.83335647  .00078362  00000+0  40622-3 0  9992
2 68224  97.2823 323.0465 0001287  84.5321 250.6562 15.80813629  2987
STARLINK-36960          
1 68225U 26053U   26087.83335647  .00037041  00000+0  19334-3 0  9998
2 68225  97.2809 323.0479 0001509  92.3629 247.0868 15.80810742  3075
STARLINK-37038          
1 68226U 26053V   26087.83335647  .00110232  00000+0  57017-3 0  9993
2 68226  97.2808 323.0514 0001479  94.5103 253.4973 15.80770060  3078
STARLINK-37083          
1 68227U 26053W   26087.83335647  .00021103  00000+0  11058-3 0  9997
2 68227  97.2811 323.0502 0001571 109.5884 234.1208 15.80828602  3091
